NORAD_CAT_ID,OBJECT_NAME,OBJECT_TYPE,EPOCH,MEAN_MOTION,ECCENTRICITY,INCLINATION,RA_OF_ASC_NODE,ARG_OF_PERICENTER,MEAN_ANOMALY,BSTAR,MEAN_MOTION_DOT,MEAN_MOTION_DDOT,TLE_LINE0,TLE_LINE1,TLE_LINE2,SEMIMAJOR_AXIS,PERIOD,APOGEE,PERIGEE,DECAYED
53436.0,STARLINK-4527,PAYLOAD,2022-11-19 14:00:01,15.08842644,0.0001344,53.2154,118.2236,76.3148,52.0193,-0.0016945,-0.00027156,0.0,0 STARLINK-4527,1 53436U 22097BA  22323.58334491 -.00027156  00000-0 -16945-2 0  9990,2 53436  53.2154 118.2236 0001344  76.3148  52.0193 15.08842644  1303,6917.871999999999,95.437,540.6669999999998,538.808,0.0
53436.0,STARLINK-4527,PAYLOAD,2022-11-19 22:00:00,15.08814292,0.0001365,53.2152,116.7282,66.3109,73.6143,0.0026528,0.00042154,0.0,0 STARLINK-4527,1 53436U 22097BA  22323.91667824  .00042154  00000-0  26528-2 0  9997,2 53436  53.2152 116.7282 0001365  66.3109  73.6143 15.08814292  1306,6917.959,95.439,540.768,538.88,0.0
53436.0,STARLINK-4527,PAYLOAD,2022-11-20 14:00:01,15.08859164,0.0001364,53.2156,113.7342,72.773,90.3236,-0.001948,-0.00031173,0.0,0 STARLINK-4527,1 53436U 22097BA  22324.58334491 -.00031173  00000-0 -19480-2 0  9992,2 53436  53.2156 113.7342 0001364  72.7730  90.3236 15.08859164 16373,6917.821999999999,95.436,540.63,538.743,0.0
53436.0,STARLINK-4527,PAYLOAD,2022-11-20 22:00:00,15.08829315,0.0001341999999999,53.2155,112.2386,62.7272,111.9777,1.2379e-05,-9.1e-07,0.0,0 STARLINK-4527,1 53436U 22097BA  22324.91667824 -.00000091  00000-0  12379-4 0  9994,2 53436  53.2155 112.2386 0001342  62.7272 111.9777 15.08829315  1302,6917.913000000001,95.438,540.706,538.85,0.0
53436.0,STARLINK-4527,PAYLOAD,2022-11-21 14:00:01,15.08847899,0.0001305,53.2161,109.2449,68.1877,129.6853,-0.0013276,-0.00021359,0.0,0 STARLINK-4527,1 53436U 22097BA  22325.58334491 -.00021359  00000-0 -13276-2 0  9995,2 53436  53.2161 109.2449 0001305  68.1877 129.6853 15.08847899 16523,6917.856,95.437,540.624,538.818,0.0
53436.0,STARLINK-4527,PAYLOAD,2022-11-22 00:00:00,15.08859516,0.0001315999999999,53.2162,107.3745,62.0018,240.3612,-0.0013452,-0.00021644,0.0,0 STARLINK-4527,1 53436U 22097BA  22326.00001157 -.00021644  00000-0 -13452-2 0  9996,2 53436  53.2162 107.3745 0001316  62.0018 240.3612 15.08859516  1307,6917.821,95.436,540.596,538.775,0.0
53436.0,STARLINK-4527,PAYLOAD,2022-11-22 06:00:02,15.08838201,0.0001267,53.2165,106.2509,69.9134,151.2262,0.0010815999999999,0.00016967,0.0,0 STARLINK-4527,1 53436U 22097BA  22326.25002315  .00016967  00000-0  10816-2 0  9991,2 53436  53.2165 106.2509 0001267  69.9134 151.2262 15.08838201 16626,6917.886,95.438,540.627,538.874,0.0
53436.0,STARLINK-4527,PAYLOAD,2022-11-22 14:00:01,15.08845129,0.0001422,53.2168,104.7556,67.4075,165.3329,-0.0018418,-0.00029485,0.0,0 STARLINK-4527,1 53436U 22097BA  22326.58335648 -.00029485  00000-0 -18418-2 0  9992,2 53436  53.2168 104.7556 0001422  67.4075 165.3329 15.08845129  1300,6917.865,95.437,540.7130000000002,538.746,0.0
53436.0,STARLINK-4527,PAYLOAD,2022-11-22 22:00:00,15.08832629,0.0001449,53.2167,103.2598,61.9306,182.3347,0.00082021,0.00012787,0.0,0 STARLINK-4527,1 53436U 22097BA  22326.91667824  .00012787  00000-0  82021-3 0  9990,2 53436  53.2167 103.2598 0001449  61.9306 182.3347 15.08832629 16726,6917.903,95.438,540.77,538.766,0.0
53436.0,STARLINK-4527,PAYLOAD,2022-11-23 14:00:01,15.08828442,0.0001303,53.2173,100.2668,68.975,198.4642,-0.0011795999999999,-0.00019006,0.0,0 STARLINK-4527,1 53436U 22097BA  22327.58334491 -.00019006  00000-0 -11796-2 0  9998,2 53436  53.2173 100.2668 0001303  68.9750 198.4642 15.08828442 16822,6917.916,95.438,540.682,538.879,0.0
53436.0,STARLINK-4527,PAYLOAD,2022-11-24 00:00:00,15.0884328,0.0001279,53.2172,98.3962,65.5132,306.3895,-0.0018631,-0.00029819,0.0,0 STARLINK-4527,1 53436U 22097BA  22328.00001157 -.00029819  00000-0 -18631-2 0  9994,2 53436  53.2172  98.3962 0001279  65.5132 306.3895 15.08843280  1308,6917.87,95.437,540.62,538.851,0.0
53436.0,STARLINK-4527,PAYLOAD,2022-11-24 06:00:02,15.08807797,0.0001197,53.2173,97.273,74.2111,216.4531,0.0031922,0.00050837,0.0,0 STARLINK-4527,1 53436U 22097BA  22328.25002315  .00050837  00000-0  31922-2 0  9998,2 53436  53.2173  97.2730 0001197  74.2111 216.4531 15.08807797 16928,6917.979,95.44,540.672,539.016,0.0
53436.0,STARLINK-4527,PAYLOAD,2022-11-24 14:00:01,15.08845646,0.0001279,53.2175,95.7782,67.9215,234.2571,-0.0011559,-0.0001864,0.0,0 STARLINK-4527,1 53436U 22097BA  22328.58334491 -.00018640  00000-0 -11559-2 0  9999,2 53436  53.2175  95.7782 0001279  67.9215 234.2571 15.08845646  1308,6917.863,95.437,540.613,538.8430000000002,0.0
53436.0,STARLINK-4527,PAYLOAD,2022-11-24 22:00:00,15.08851959,0.0001264,53.2172,94.2821,62.8072,250.9641,-0.00038412,-6.398e-05,0.0,0 STARLINK-4527,1 53436U 22097BA  22328.91667824 -.00006398  00000-0 -38412-3 0  9990,2 53436  53.2172  94.2821 0001264  62.8072 250.9641 15.08851959 17036,6917.844,95.437,540.5830000000002,538.8340000000002,0.0
53436.0,STARLINK-4527,PAYLOAD,2022-11-25 14:00:01,15.08851062,0.0001375,53.2174,91.2897,68.1898,268.7994,-0.0019784,-0.00031646,0.0,0 STARLINK-4527,1 53436U 22097BA  22329.58334491 -.00031646  00000-0 -19784-2 0  9999,2 53436  53.2174  91.2897 0001375  68.1898 268.7994 15.08851062  1302,6917.847,95.437,540.663,538.76,0.0
53436.0,STARLINK-4527,PAYLOAD,2022-11-26 00:00:00,15.08858407,0.0001369,53.2172,89.4188,67.414,14.067,-0.0013805999999999,-0.00022204,0.0,0 STARLINK-4527,1 53436U 22097BA  22330.00001157 -.00022204  00000-0 -13806-2 0  9997,2 53436  53.2172  89.4188 0001369  67.4140  14.0670 15.08858407  1300,6917.824000000001,95.436,540.636,538.742,0.0
53436.0,STARLINK-4527,PAYLOAD,2022-11-26 06:00:00,15.08829713,0.0001315,53.2171,88.2957,73.9772,286.2169,0.0036179,0.00057746,0.0,0 STARLINK-4527,1 53436U 22097BA  22330.25001157  .00057746  00000-0  36179-2 0  9999,2 53436  53.2171  88.2957 0001315  73.9772 286.2169 15.08829713 17237,6917.9119999999975,95.438,540.687,538.867,0.0
53436.0,STARLINK-4527,PAYLOAD,2022-11-26 14:00:01,15.08878204,0.000139,53.2172,86.8011,65.5402,306.2576,-0.003907,-0.00061997,0.0,0 STARLINK-4527,1 53436U 22097BA  22330.58334491 -.00061997  00000-0 -39070-2 0  9993,2 53436  53.2172  86.8011 0001390  65.5402 306.2576 15.08878204  1308,6917.764,95.435,540.59,538.6669999999998,0.0
53436.0,STARLINK-4527,PAYLOAD,2022-11-26 22:00:00,15.08860718,0.0001363,53.217,85.3045,60.8921,322.518,-0.0036076,-0.00057278,0.0,0 STARLINK-4527,1 53436U 22097BA  22330.91667824 -.00057278  00000-0 -36076-2 0  9999,2 53436  53.2170  85.3045 0001363  60.8921 322.5180 15.08860718 17334,6917.816999999999,95.436,540.625,538.739,0.0
53436.0,STARLINK-4527,PAYLOAD,2022-11-27 14:00:01,15.0883902,0.0001512,53.2172,82.3122,64.0857,342.4982,-0.00057553,-9.436e-05,0.0,0 STARLINK-4527,1 53436U 22097BA  22331.58334491 -.00009436  00000-0 -57553-3 0  9991,2 53436  53.2172  82.3122 0001512  64.0857 342.4982 15.08839020  1302,6917.8830000000025,95.438,540.794,538.702,0.0
53436.0,STARLINK-4527,PAYLOAD,2022-11-28 00:00:00,15.08848463,0.0001501999999999,53.2173,80.4409,64.8539,86.2185,-0.0029255,-0.00046557,0.0,0 STARLINK-4527,1 53436U 22097BA  22332.00001157 -.00046557  00000-0 -29255-2 0  9991,2 53436  53.2173  80.4409 0001502  64.8539  86.2185 15.08848463  1303,6917.855,95.437,540.759,538.68,0.0
53436.0,STARLINK-4527,PAYLOAD,2022-11-28 14:00:01,15.08842034,0.0001664,53.2174,77.8232,63.2129,18.1362,-7.7134e-05,-1.516e-05,0.0,0 STARLINK-4527,1 53436U 22097BA  22332.58334491 -.00001516  00000-0 -77134-4 0  9991,2 53436  53.2174  77.8232 0001664  63.2129  18.1362 15.08842034 17581,6917.874,95.437,540.89,538.5880000000002,0.0
53436.0,STARLINK-4527,PAYLOAD,2022-11-28 22:00:01,15.08870867,0.0001573,53.2175,76.3263,60.269,32.7329,-0.0039573,-0.00062773,0.0,0 STARLINK-4527,1 53436U 22097BA  22332.91668981 -.00062773  00000-0 -39573-2 0  9997,2 53436  53.2175  76.3263 0001573  60.2690  32.7329 15.08870867  1302,6917.786,95.436,540.739,538.563,0.0
53436.0,STARLINK-4527,PAYLOAD,2022-11-29 14:00:01,15.08852068,0.0001557,53.2178,73.334,58.4956,57.7045,-0.0025927,-0.00041328,0.0,0 STARLINK-4527,1 53436U 22097BA  22333.58335648 -.00041328  00000-0 -25927-2 0  9993,2 53436  53.2178  73.3340 0001557  58.4956  57.7045 15.08852068 17733,6917.844,95.437,540.786,538.631,0.0
53436.0,STARLINK-4527,PAYLOAD,2022-11-29 22:00:00,15.08844047,0.0001462,53.2178,71.837,56.5813,71.1442,-0.0011429,-0.00018433,0.0,0 STARLINK-4527,1 53436U 22097BA  22333.91667824 -.00018433  00000-0 -11429-2 0  9997,2 53436  53.2178  71.8370 0001462  56.5813  71.1442 15.08844047  1300,6917.868,95.437,540.744,538.722,0.0
53436.0,STARLINK-4527,PAYLOAD,2022-11-30 14:00:01,15.08822798,0.0001653,53.218,68.8445,57.3923,93.5907,0.00056511,8.713e-05,0.0,0 STARLINK-4527,1 53436U 22097BA  22334.58335648  .00008713  00000-0  56511-3 0  9997,2 53436  53.2180  68.8445 0001653  57.3923  93.5907 15.08822798  1308,6917.933000000001,95.439,540.942,538.654,0.0
53436.0,STARLINK-4527,PAYLOAD,2022-11-30 22:00:00,15.0889696,0.000166,53.2174,67.3455,57.7906,104.6959,-0.0096029,-0.00150185,0.0,0 STARLINK-4527,1 53436U 22097BA  22334.91667824 -.00150185  00000-0 -96029-2 0  9998,2 53436  53.2174  67.3455 0001660  57.7906 104.6959 15.08896960  1302,6917.706,95.434,540.72,538.423,0.0
53436.0,STARLINK-4527,PAYLOAD,2022-12-01 14:00:01,15.08837216,0.0001595,53.2175,64.3505,51.7446,133.8935,-5.770000000000001e-05,-1.206e-05,0.0,0 STARLINK-4527,1 53436U 22097BA  22335.58334491 -.00001206  00000-0 -57700-4 0  9997,2 53436  53.2175  64.3505 0001595  51.7446 133.8935 15.08837216  1303,6917.889,95.438,540.857,538.65,0.0
53436.0,STARLINK-4527,PAYLOAD,2022-12-01 20:00:01,15.08836846,0.0001573,53.2172,63.2276,50.9156,53.4801,1.9143e-05,1.7e-07,0.0,0 STARLINK-4527,1 53436U 22097BA  22335.83335648  .00000017  00000-0  19143-4 0  9996,2 53436  53.2172  63.2276 0001573  50.9156  53.4801 15.08836846 18077,6917.89,95.438,540.8430000000002,538.6669999999998,0.0
